0 COSMOS 1823 DEB
1 18803U 87020AP  13282.67886731  .00000006  00000-0  19006-3 0  4034
2 18803 073.4488 257.0353 0082687 078.9633 030.2761 12.31704112159936
0 COSMOS 1823 DEB
1 18803U 87020AP  13287.05627124 -.00000034  00000-0 -13968-3 0  4056
2 18803 073.4494 251.2146 0082814 072.8237 000.3367 12.31704896160474
0 COSMOS 1823 DEB
1 18803U 87020AP  13289.34837951  .00000032  00000-0  40458-3 0  4062
2 18803 073.4500 248.1670 0082927 069.6015 083.9008 12.31704555160754
0 COSMOS 1823 DEB
1 18803U 87020AP  13291.92551145  .00000070  00000-0  72199-3 0  4077
2 18803 073.4502 244.7408 0083028 065.9973 351.2841 12.31705289161079
0 COSMOS 1823 DEB
1 18803U 87020AP  13293.95945422  .00000093  00000-0  90455-3 0  4088
2 18803 073.4502 242.0370 0083097 063.1574 010.0839 12.31705239161321
0 COSMOS 1823 DEB
1 18803U 87020AP  13295.99105794  .00000039  00000-0  46024-3 0  4098
2 18803 073.4503 239.3360 0083160 060.3178 018.5129 12.31705836161575
